[{"OBJECT_NAME":"STARLINK-31922","OBJECT_ID":"2024-097M","EPOCH":"2026-03-08T23:48:28.547712","MEAN_MOTION":15.27574756,"ECCENTRICITY":0.00013996,"INCLINATION":43.001,"RA_OF_ASC_NODE":277.9877,"ARG_OF_PERICENTER":265.2974,"MEAN_ANOMALY":94.7718,"EPHEMERIS_TYPE":0,"CLASSIFICATION_TYPE":"U","NORAD_CAT_ID":59846,"ELEMENT_SET_NO":999,"REV_AT_EPOCH":10181,"BSTAR":2.137538e-6,"MEAN_MOTION_DOT":-2.03e-6,"MEAN_MOTION_DDOT":0},{"OBJECT_NAME":"OBJECT G","OBJECT_ID":"2025-155G","EPOCH":"2026-03-09T22:09:56.639808","MEAN_MOTION":15.27590702,"ECCENTRICITY":0.00081871,"INCLINATION":97.4488,"RA_OF_ASC_NODE":37.3259,"ARG_OF_PERICENTER":154.1528,"MEAN_ANOMALY":206.0122,"EPHEMERIS_TYPE":0,"CLASSIFICATION_TYPE":"U","NORAD_CAT_ID":64882,"ELEMENT_SET_NO":999,"REV_AT_EPOCH":6559,"BSTAR":0.0004792617,"MEAN_MOTION_DOT":0.00012876,"MEAN_MOTION_DDOT":0}]
